BEIDOU-2 M4 (C12)       
1 38251U 12018B   25333.37226912 -.00000044  00000+0  00000+0 0  9996
2 38251  55.8330 310.8372 0015700 276.1560  83.6664  1.86229448 92221
BEIDOU-2 M6 (C14)       
1 38775U 12050B   25333.62019731 -.00000027  00000+0  00000+0 0  9991
2 38775  56.3673  69.5030 0010807 346.8853  13.0946  1.86230738 89590
BEIDOU-2 G6 (C02)       
1 38953U 12059A   25333.88000978 -.00000154  00000+0  00000+0 0  9990
2 38953   3.9136  75.6286 0007215 292.5361 101.7162  1.00271616 47912
BEIDOU-3S M2S (C58)     
1 40748U 15037A   25333.57734006 -.00000047  00000+0  00000+0 0  9997
2 40748  55.0506 308.9158 0012518 266.8741  92.9820  1.86229065 70401
BEIDOU-3S M1S (C57)     
1 40749U 15037B   25330.05103794 -.00000040  00000+0  00000+0 0  9995
2 40749  55.0504 309.0266 0003268 354.4635   5.5327  1.86253920 70342
BEIDOU-3S IGSO-2S (C56) 
1 40938U 15053A   25331.73419618 -.00000147  00000+0  00000+0 0  9992
2 40938  49.5372 261.1858 0060974 189.0175 337.1684  1.00273439 37331
BEIDOU-2 IGSO-6 (C13)   
1 41434U 16021A   25333.66755465 -.00000150  00000+0  00000+0 0  9991
2 41434  59.9454  40.0323 0059092 231.0312 130.2075  1.00257137 35487
BEIDOU-2 G7 (C03)       
1 41586U 16037A   25333.88529648 -.00000332  00000+0  00000+0 0  9994
2 41586   1.7228  67.6404 0004608   7.5039  63.0619  1.00273822  4896
