{
  "type": "FeatureCollection",
  "features": [
    {
      "type": "Feature",
      "properties": {
        "OBJECT_NAME": "BEIDOU-2 M4 (C12)",
        "OBJECT_ID": "2012-018B",
        "EPOCH": "2025-11-29T08:56:04.051968",
        "MEAN_MOTION": 1.86229448,
        "ECCENTRICITY": 0.00157,
        "INCLINATION": 55.833,
        "RA_OF_ASC_NODE": 310.8372,
        "ARG_OF_PERICENTER": 276.156,
        "MEAN_ANOMALY": 83.6664,
        "EPHEMERIS_TYPE": 0,
        "CLASSIFICATION_TYPE": "U",
        "NORAD_CAT_ID": 38251,
        "ELEMENT_SET_NO": 999,
        "REV_AT_EPOCH": 9222,
        "BSTAR": 0,
        "MEAN_MOTION_DOT": -4.4e-07,
        "MEAN_MOTION_DDOT": 0,
        "norad_id": 38251,
        "name": "BEIDOU-2 M4 (C12)",
        "group": "beidou",
        "longitude_deg": NaN,
        "latitude_deg": NaN,
        "alt_km": NaN,
        "orbit_class": "HEO",
        "timestamp": "2025-11-30T06:54:03.075218+00:00"
      },
      "geometry": {
        "type": "Point",
        "coordinates": [
          NaN,
          NaN
        ]
      }
    },
    {
      "type": "Feature",
      "properties": {
        "OBJECT_NAME": "BEIDOU-2 M6 (C14)",
        "OBJECT_ID": "2012-050B",
        "EPOCH": "2025-11-29T14:53:05.047584",
        "MEAN_MOTION": 1.86230738,
        "ECCENTRICITY": 0.0010807,
        "INCLINATION": 56.3673,
        "RA_OF_ASC_NODE": 69.503,
        "ARG_OF_PERICENTER": 346.8853,
        "MEAN_ANOMALY": 13.0946,
        "EPHEMERIS_TYPE": 0,
        "CLASSIFICATION_TYPE": "U",
        "NORAD_CAT_ID": 38775,
        "ELEMENT_SET_NO": 999,
        "REV_AT_EPOCH": 8959,
        "BSTAR": 0,
        "MEAN_MOTION_DOT": -2.7e-07,
        "MEAN_MOTION_DDOT": 0,
        "norad_id": 38775,
        "name": "BEIDOU-2 M6 (C14)",
        "group": "beidou",
        "longitude_deg": NaN,
        "latitude_deg": NaN,
        "alt_km": NaN,
        "orbit_class": "HEO",
        "timestamp": "2025-11-30T06:54:03.075410+00:00"
      },
      "geometry": {
        "type": "Point",
        "coordinates": [
          NaN,
          NaN
        ]
      }
    },
    {
      "type": "Feature",
      "properties": {
        "OBJECT_NAME": "BEIDOU-2 G6 (C02)",
        "OBJECT_ID": "2012-059A",
        "EPOCH": "2025-11-29T21:07:12.844992",
        "MEAN_MOTION": 1.00271616,
        "ECCENTRICITY": 0.0007215,
        "INCLINATION": 3.9136,
        "RA_OF_ASC_NODE": 75.6286,
        "ARG_OF_PERICENTER": 292.5361,
        "MEAN_ANOMALY": 101.7162,
        "EPHEMERIS_TYPE": 0,
        "CLASSIFICATION_TYPE": "U",
        "NORAD_CAT_ID": 38953,
        "ELEMENT_SET_NO": 999,
        "REV_AT_EPOCH": 4791,
        "BSTAR": 0,
        "MEAN_MOTION_DOT": -1.54e-06,
        "MEAN_MOTION_DDOT": 0,
        "norad_id": 38953,
        "name": "BEIDOU-2 G6 (C02)",
        "group": "beidou",
        "longitude_deg": NaN,
        "latitude_deg": NaN,
        "alt_km": NaN,
        "orbit_class": "HEO",
        "timestamp": "2025-11-30T06:54:03.075466+00:00"
      },
      "geometry": {
        "type": "Point",
        "coordinates": [
          NaN,
          NaN
        ]
      }
    },
    {
      "type": "Feature",
      "properties": {
        "OBJECT_NAME": "BEIDOU-3S M2S (C58)",
        "OBJECT_ID": "2015-037A",
        "EPOCH": "2025-11-29T13:51:22.181184",
        "MEAN_MOTION": 1.86229065,
        "ECCENTRICITY": 0.0012518,
        "INCLINATION": 55.0506,
        "RA_OF_ASC_NODE": 308.9158,
        "ARG_OF_PERICENTER": 266.8741,
        "MEAN_ANOMALY": 92.982,
        "EPHEMERIS_TYPE": 0,
        "CLASSIFICATION_TYPE": "U",
        "NORAD_CAT_ID": 40748,
        "ELEMENT_SET_NO": 999,
        "REV_AT_EPOCH": 7040,
        "BSTAR": 0,
        "MEAN_MOTION_DOT": -4.7e-07,
        "MEAN_MOTION_DDOT": 0,
        "norad_id": 40748,
        "name": "BEIDOU-3S M2S (C58)",
        "group": "beidou",
        "longitude_deg": NaN,
        "latitude_deg": NaN,
        "alt_km": NaN,
        "orbit_class": "HEO",
        "timestamp": "2025-11-30T06:54:03.077158+00:00"
      },
      "geometry": {
        "type": "Point",
        "coordinates": [
          NaN,
          NaN
        ]
      }
    },
    {
      "type": "Feature",
      "properties": {
        "OBJECT_NAME": "BEIDOU-3S M1S (C57)",
        "OBJECT_ID": "2015-037B",
        "EPOCH": "2025-11-26T01:13:29.678016",
        "MEAN_MOTION": 1.8625392,
        "ECCENTRICITY": 0.00032681,
        "INCLINATION": 55.0504,
        "RA_OF_ASC_NODE": 309.0266,
        "ARG_OF_PERICENTER": 354.4635,
        "MEAN_ANOMALY": 5.5327,
        "EPHEMERIS_TYPE": 0,
        "CLASSIFICATION_TYPE": "U",
        "NORAD_CAT_ID": 40749,
        "ELEMENT_SET_NO": 999,
        "REV_AT_EPOCH": 7034,
        "BSTAR": 0,
        "MEAN_MOTION_DOT": -4e-07,
        "MEAN_MOTION_DDOT": 0,
        "norad_id": 40749,
        "name": "BEIDOU-3S M1S (C57)",
        "group": "beidou",
        "longitude_deg": NaN,
        "latitude_deg": NaN,
        "alt_km": NaN,
        "orbit_class": "HEO",
        "timestamp": "2025-11-30T06:54:03.077164+00:00"
      },
      "geometry": {
        "type": "Point",
        "coordinates": [
          NaN,
          NaN
        ]
      }
    },
    {
      "type": "Feature",
      "properties": {
        "OBJECT_NAME": "BEIDOU-3S IGSO-2S (C56)",
        "OBJECT_ID": "2015-053A",
        "EPOCH": "2025-11-27T17:37:14.549952",
        "MEAN_MOTION": 1.00273439,
        "ECCENTRICITY": 0.00609746,
        "INCLINATION": 49.5372,
        "RA_OF_ASC_NODE": 261.1858,
        "ARG_OF_PERICENTER": 189.0175,
        "MEAN_ANOMALY": 337.1684,
        "EPHEMERIS_TYPE": 0,
        "CLASSIFICATION_TYPE": "U",
        "NORAD_CAT_ID": 40938,
        "ELEMENT_SET_NO": 999,
        "REV_AT_EPOCH": 3733,
        "BSTAR": 0,
        "MEAN_MOTION_DOT": -1.47e-06,
        "MEAN_MOTION_DDOT": 0,
        "norad_id": 40938,
        "name": "BEIDOU-3S IGSO-2S (C56)",
        "group": "beidou",
        "longitude_deg": NaN,
        "latitude_deg": NaN,
        "alt_km": NaN,
        "orbit_class": "HEO",
        "timestamp": "2025-11-30T06:54:03.077270+00:00"
      },
      "geometry": {
        "type": "Point",
        "coordinates": [
          NaN,
          NaN
        ]
      }
    },
    {
      "type": "Feature",
      "properties": {
        "OBJECT_NAME": "BEIDOU-2 IGSO-6 (C13)",
        "OBJECT_ID": "2016-021A",
        "EPOCH": "2025-11-29T16:01:16.721760",
        "MEAN_MOTION": 1.00257137,
        "ECCENTRICITY": 0.0059092,
        "INCLINATION": 59.9454,
        "RA_OF_ASC_NODE": 40.0323,
        "ARG_OF_PERICENTER": 231.0312,
        "MEAN_ANOMALY": 130.2075,
        "EPHEMERIS_TYPE": 0,
        "CLASSIFICATION_TYPE": "U",
        "NORAD_CAT_ID": 41434,
        "ELEMENT_SET_NO": 999,
        "REV_AT_EPOCH": 3548,
        "BSTAR": 0,
        "MEAN_MOTION_DOT": -1.5e-06,
        "MEAN_MOTION_DDOT": 0,
        "norad_id": 41434,
        "name": "BEIDOU-2 IGSO-6 (C13)",
        "group": "beidou",
        "longitude_deg": NaN,
        "latitude_deg": NaN,
        "alt_km": NaN,
        "orbit_class": "HEO",
        "timestamp": "2025-11-30T06:54:03.077633+00:00"
      },
      "geometry": {
        "type": "Point",
        "coordinates": [
          NaN,
          NaN
        ]
      }
    },
    {
      "type": "Feature",
      "properties": {
        "OBJECT_NAME": "BEIDOU-2 G7 (C03)",
        "OBJECT_ID": "2016-037A",
        "EPOCH": "2025-11-29T21:14:49.615872",
        "MEAN_MOTION": 1.00273822,
        "ECCENTRICITY": 0.0004608,
        "INCLINATION": 1.7228,
        "RA_OF_ASC_NODE": 67.6404,
        "ARG_OF_PERICENTER": 7.5039,
        "MEAN_ANOMALY": 63.0619,
        "EPHEMERIS_TYPE": 0,
        "CLASSIFICATION_TYPE": "U",
        "NORAD_CAT_ID": 41586,
        "ELEMENT_SET_NO": 999,
        "REV_AT_EPOCH": 489,
        "BSTAR": 0,
        "MEAN_MOTION_DOT": -3.32e-06,
        "MEAN_MOTION_DDOT": 0,
        "norad_id": 41586,
        "name": "BEIDOU-2 G7 (C03)",
        "group": "beidou",
        "longitude_deg": NaN,
        "latitude_deg": NaN,
        "alt_km": NaN,
        "orbit_class": "HEO",
        "timestamp": "2025-11-30T06:54:03.077697+00:00"
      },
      "geometry": {
        "type": "Point",
        "coordinates": [
          NaN,
          NaN
        ]
      }
    }
  ]
}